NORAD_CAT_ID,OBJECT_NAME,OBJECT_TYPE,EPOCH,MEAN_MOTION,ECCENTRICITY,INCLINATION,RA_OF_ASC_NODE,ARG_OF_PERICENTER,MEAN_ANOMALY,BSTAR,MEAN_MOTION_DOT,MEAN_MOTION_DDOT,TLE_LINE0,TLE_LINE1,TLE_LINE2,SEMIMAJOR_AXIS,PERIOD,APOGEE,PERIGEE,DECAYED
50850.0,STARLINK-3312,PAYLOAD,2024-02-07 01:03:23,15.08845431,0.0001512,53.2177,318.2817,91.7479,268.3686,2.7232e-05,1.45e-06,0.0,0 STARLINK-3312,1 50850U 22001AZ  24038.04401965  .00000145  00000-0  27232-4 0  9999,2 50850  53.2177 318.2817 0001512  91.7479 268.3686 15.08845431117121,6917.864,95.437,540.775,538.683,0.0
50850.0,STARLINK-3312,PAYLOAD,2024-02-07 12:11:05,15.08837115,0.000139,53.2186,316.1976,94.2993,265.8158,-8.6766e-05,-1.668e-05,0.0,0 STARLINK-3312,1 50850U 22001AZ  24038.50770582 -.00001668  00000-0 -86766-4 0  9994,2 50850  53.2186 316.1976 0001390  94.2993 265.8158 15.08837115117190,6917.889,95.438,540.716,538.793,0.0
50850.0,STARLINK-3312,PAYLOAD,2024-02-07 21:43:25,15.08831044,0.0001528,53.218,314.4137,94.2595,265.8572,-2.7022e-05,-7.18e-06,0.0,0 STARLINK-3312,1 50850U 22001AZ  24038.90515157 -.00000718  00000-0 -27022-4 0  9998,2 50850  53.2180 314.4137 0001528  94.2595 265.8572 15.08831044116515,6917.908,95.438,540.83,538.716,0.0
50850.0,STARLINK-3312,PAYLOAD,2024-02-08 04:04:57,15.08835447,0.0001787,53.2184,313.2206,115.5665,244.5512,1.2919e-05,-8.3e-07,0.0,0 STARLINK-3312,1 50850U 22001AZ  24039.17010716 -.00000083  00000-0  12919-4 0  9992,2 50850  53.2184 313.2206 0001787 115.5665 244.5512 15.08835447116558,6917.894,95.438,540.996,538.523,0.0
50850.0,STARLINK-3312,PAYLOAD,2024-02-08 21:34:11,15.08845733,0.0001503,53.2183,309.9501,108.4905,251.625,-4.8501e-06,-3.65e-06,0.0,0 STARLINK-3312,1 50850U 22001AZ  24039.89874403 -.00000365  00000-0 -48501-5 0  9993,2 50850  53.2183 309.9501 0001503 108.4905 251.6250 15.08845733116660,6917.863,95.437,540.768,538.688,0.0
50850.0,STARLINK-3312,PAYLOAD,2024-02-09 03:55:43,15.08847391,0.0001735,53.2183,308.7601,122.5317,237.5843,0.00011471,1.538e-05,0.0,0 STARLINK-3312,1 50850U 22001AZ  24040.16369921  .00001538  00000-0  11471-3 0  9994,2 50850  53.2183 308.7601 0001735 122.5317 237.5843 15.08847391117449,6917.858,95.437,540.923,538.523,0.0
50850.0,STARLINK-3312,PAYLOAD,2024-02-09 18:14:12,15.08835135,0.0001677,53.2178,306.0805,120.548,239.5678,0.00010028,1.308e-05,0.0,0 STARLINK-3312,1 50850U 22001AZ  24040.75987017  .00001308  00000-0  10028-3 0  9993,2 50850  53.2178 306.0805 0001677 120.5480 239.5678 15.08835135117535,6917.895,95.438,540.92,538.6,0.0
50850.0,STARLINK-3312,PAYLOAD,2024-02-10 03:46:31,15.08840241,0.000128,53.2164,304.2976,96.1313,263.9825,7.703e-05,9.38e-06,0.0,0 STARLINK-3312,1 50850U 22001AZ  24041.15730583  .00000938  00000-0  77030-4 0  9997,2 50850  53.2164 304.2976 0001280  96.1313 263.9825 15.08840241116855,6917.88,95.438,540.63,538.859,0.0
50850.0,STARLINK-3312,PAYLOAD,2024-02-10 21:15:46,15.08837741,0.0001449,53.2164,301.0257,108.618,251.497,-8.4788e-05,-1.637e-05,0.0,0 STARLINK-3312,1 50850U 22001AZ  24041.88595141 -.00001637  00000-0 -84788-4 0  9993,2 50850  53.2164 301.0257 0001449 108.6180 251.4970 15.08837741117709,6917.887,95.438,540.755,538.75,0.0
50850.0,STARLINK-3312,PAYLOAD,2024-02-10 22:51:09,15.08840218,0.0001354,53.217,300.7274,106.0131,254.101,-3.1421e-05,-7.88e-06,0.0,0 STARLINK-3312,1 50850U 22001AZ  24041.95219496 -.00000788  00000-0 -31421-4 0  9999,2 50850  53.2170 300.7274 0001354 106.0131 254.1010 15.08840218116970,6917.88,95.438,540.681,538.808,0.0
50850.0,STARLINK-3312,PAYLOAD,2024-02-11 02:01:55,15.08842677,0.0001277,53.2173,300.1323,97.6366,262.4771,1.0897e-05,-1.14e-06,0.0,0 STARLINK-3312,1 50850U 22001AZ  24042.08467104 -.00000114  00000-0  10897-4 0  9991,2 50850  53.2173 300.1323 0001277  97.6366 262.4771 15.08842677116990,6917.872,95.437,540.621,538.854,0.0
50850.0,STARLINK-3312,PAYLOAD,2024-02-11 21:06:33,15.08844608,0.0001246,53.217,296.5626,108.6515,251.4613,9.6188e-05,1.243e-05,0.0,0 STARLINK-3312,1 50850U 22001AZ  24042.87954890  .00001243  00000-0  96188-4 0  9991,2 50850  53.2170 296.5626 0001246 108.6515 251.4613 15.08844608117110,6917.866,95.437,540.593,538.869,0.0
50850.0,STARLINK-3312,PAYLOAD,2024-02-12 00:17:19,15.0884899,0.0001357,53.2168,295.9756,78.2503,281.8641,0.00019247,2.777e-05,0.0,0 STARLINK-3312,1 50850U 22001AZ  24043.01202722  .00002777  00000-0  19247-3 0  9991,2 50850  53.2168 295.9756 0001357  78.2503 281.8641 15.08848990117875,6917.853,95.437,540.657,538.779,0.0
50850.0,STARLINK-3312,PAYLOAD,2024-02-12 16:11:11,15.08832938,0.0001179,53.2167,293.0013,94.3707,265.742,9.0798e-05,1.157e-05,0.0,0 STARLINK-3312,1 50850U 22001AZ  24043.67443863  .00001157  00000-0  90798-4 0  9998,2 50850  53.2167 293.0013 0001179  94.3707 265.7420 15.08832938117978,6917.902,95.438,540.583,538.951,0.0
50850.0,STARLINK-3312,PAYLOAD,2024-02-12 22:32:43,15.08837458,0.0001435,53.2163,291.816,72.6677,287.4472,4.5767e-05,4.4e-06,0.0,0 STARLINK-3312,1 50850U 22001AZ  24043.93939675  .00000440  00000-0  45767-4 0  9998,2 50850  53.2163 291.8160 0001435  72.6677 287.4472 15.08837458117276,6917.888,95.438,540.746,538.76,0.0
50850.0,STARLINK-3312,PAYLOAD,2024-02-13 09:40:25,15.08838147,0.0001393,53.2158,289.7343,83.3433,276.7718,8.7946e-05,1.112e-05,0.0,0 STARLINK-3312,1 50850U 22001AZ  24044.40307789  .00001112  00000-0  87946-4 0  9998,2 50850  53.2158 289.7343 0001393  83.3433 276.7718 15.08838147117349,6917.886,95.438,540.715,538.787,0.0
50850.0,STARLINK-3312,PAYLOAD,2024-02-13 22:23:30,15.08843738,0.0001257,53.2144,287.3539,89.9026,270.211,0.00012654,1.727e-05,0.0,0 STARLINK-3312,1 50850U 22001AZ  24044.93299639  .00001727  00000-0  12654-3 0  9995,2 50850  53.2144 287.3539 0001257  89.9026 270.2110 15.08843738117420,6917.869,95.437,540.604,538.864,0.0
50850.0,STARLINK-3312,PAYLOAD,2024-02-14 09:31:12,15.08841156,0.0001275,53.2143,285.2728,90.0359,270.0779,0.00020102,2.913e-05,0.0,0 STARLINK-3312,1 50850U 22001AZ  24045.39667782  .00002913  00000-0  20102-3 0  9999,2 50850  53.2143 285.2728 0001275  90.0359 270.0779 15.08841156117496,6917.877,95.437,540.624,538.86,0.0
50850.0,STARLINK-3312,PAYLOAD,2024-02-14 15:52:45,15.08837617,0.0001693,53.2154,284.0818,100.2114,259.9069,0.00012505,1.703e-05,0.0,0 STARLINK-3312,1 50850U 22001AZ  24045.66164195  .00001703  00000-0  12505-3 0  9993,2 50850  53.2154 284.0818 0001693 100.2114 259.9069 15.08837617118274,6917.888,95.438,540.924,538.581,0.0
50850.0,STARLINK-3312,PAYLOAD,2024-02-14 22:14:18,15.08838823,0.0001687,53.2154,282.8926,99.0715,261.0468,0.00015107,2.117e-05,0.0,0 STARLINK-3312,1 50850U 22001AZ  24045.92660244  .00002117  00000-0  15107-3 0  9999,2 50850  53.2154 282.8926 0001687  99.0715 261.0468 15.08838823117574,6917.884,95.438,540.916,538.582,0.0
50850.0,STARLINK-3312,PAYLOAD,2024-02-15 01:25:04,15.08841362,0.000161,53.2163,282.2976,103.5508,256.5663,0.00016599,2.355e-05,0.0,0 STARLINK-3312,1 50850U 22001AZ  24046.05908160  .00002355  00000-0  16599-3 0  9996,2 50850  53.2163 282.2976 0001610 103.5508 256.5663 15.08841362117590,6917.876,95.437,540.855,538.627,0.0
50850.0,STARLINK-3312,PAYLOAD,2024-02-15 18:54:18,15.0884775,0.0001466,53.2151,279.0271,98.0148,262.101,0.00025219,3.729e-05,0.0,0 STARLINK-3312,1 50850U 22001AZ  24046.78771900  .00003729  00000-0  25219-3 0  9991,2 50850  53.2151 279.0271 0001466  98.0148 262.1010 15.08847750118447,6917.857,95.437,540.736,538.708,0.0
50850.0,STARLINK-3312,PAYLOAD,2024-02-15 22:05:05,15.08847374,0.0001388,53.2149,278.4341,93.0645,267.0506,0.00045595,6.977e-05,0.0,0 STARLINK-3312,1 50850U 22001AZ  24046.92020024  .00006977  00000-0  45595-3 0  9998,2 50850  53.2149 278.4341 0001388  93.0645 267.0506 15.08847374117721,6917.858,95.437,540.683,538.763,0.0
50850.0,STARLINK-3312,PAYLOAD,2024-02-16 01:15:51,15.08853431,0.0001368,53.2143,277.8371,92.3898,267.7251,0.00035943,5.439e-05,0.0,0 STARLINK-3312,1 50850U 22001AZ  24047.05267654  .00005439  00000-0  35943-3 0  9993,2 50850  53.2143 277.8371 0001368  92.3898 267.7251 15.08853431117748,6917.839,95.437,540.651,538.758,0.0
50850.0,STARLINK-3312,PAYLOAD,2024-02-16 18:45:05,15.08846425,0.00015,53.2145,274.5645,95.1138,265.0025,0.00013614,1.88e-05,0.0,0 STARLINK-3312,1 50850U 22001AZ  24047.78131639  .00001880  00000-0  13614-3 0  9993,2 50850  53.2145 274.5645 0001500  95.1138 265.0025 15.08846425118593,6917.861,95.437,540.763,538.688,0.0
50850.0,STARLINK-3312,PAYLOAD,2024-02-16 21:55:51,15.08848836,0.0001411,53.2152,273.9699,93.4906,266.6247,0.00014901,2.085e-05,0.0,0 STARLINK-3312,1 50850U 22001AZ  24047.91379472  .00002085  00000-0  14901-3 0  9995,2 50850  53.2152 273.9699 0001411  93.4906 266.6247 15.08848836117879,6917.853,95.437,540.694,538.742,0.0
50850.0,STARLINK-3312,PAYLOAD,2024-02-17 07:28:10,15.08848576,0.000139,53.2151,272.1848,92.4441,267.671,9.9575e-05,1.298e-05,0.0,0 STARLINK-3312,1 50850U 22001AZ  24048.31123254  .00001298  00000-0  99575-4 0  9991,2 50850  53.2151 272.1848 0001390  92.4441 267.6710 15.08848576117938,6917.854,95.437,540.681,538.758,0.0
50850.0,STARLINK-3312,PAYLOAD,2024-02-17 20:11:15,15.08838795,0.0001438,53.2165,269.8113,103.2161,256.8991,-7.8855e-05,-1.543e-05,0.0,0 STARLINK-3312,1 50850U 22001AZ  24048.84115738 -.00001543  00000-0 -78855-4 0  9990,2 50850  53.2165 269.8113 0001438 103.2161 256.8991 15.08838795118758,6917.884,95.438,540.744,538.754,0.0
50850.0,STARLINK-3312,PAYLOAD,2024-02-17 21:46:39,15.08838501,0.0001423,53.2165,269.5139,100.1962,259.9191,-7.8259e-05,-1.533e-05,0.0,0 STARLINK-3312,1 50850U 22001AZ  24048.90739765 -.00001533  00000-0 -78259-4 0  9996,2 50850  53.2165 269.5139 0001423 100.1962 259.9191 15.08838501118023,6917.885,95.438,540.734,538.766,0.0
50850.0,STARLINK-3312,PAYLOAD,2024-02-18 13:40:30,15.08838627,0.0001315,53.2171,266.5399,96.4776,263.6366,6.2027e-05,6.99e-06,0.0,0 STARLINK-3312,1 50850U 22001AZ  24049.56979883  .00000699  00000-0  62027-4 0  9992,2 50850  53.2171 266.5399 0001315  96.4776 263.6366 15.08838627118121,6917.885,95.438,540.659,538.84,0.0
